SL-16 R/B               
1 25400U 98043G   26013.58287787  .00000042  00000+0  36323-4 0  9995
2 25400  98.8166 326.5864 0009958 168.2774 191.8639 14.26034308431131
SL-16 R/B               
1 25407U 98045B   26013.47924485 -.00000002  00000+0  23198-4 0  9998
2 25407  71.0120 297.6797 0005329 118.8295 241.3364 14.16180051419285
ISS (ZARYA)             
1 25544U 98067A   26013.40249039  .00009179  00000+0  17283-3 0  9992
2 25544  51.6332 345.7221 0007762  13.3130 346.8062 15.49273572547762
CZ-4B R/B               
1 25732U 99025C   26013.57856619  .00000021  00000+0  30747-4 0  9990
2 25732  98.6727  59.1396 0037810 142.2693 338.3632 14.18252037380359
OKEAN-O                 
1 25860U 99039A   26013.42631829  .00000660  00000+0  93615-4 0  9997
2 25860  97.9557  73.8474 0001660 108.9631 251.1761 14.80225560426210
SL-16 R/B               
1 25861U 99039B   26013.39105637  .00000495  00000+0  69692-4 0  9991
2 25861  98.0080  72.5375 0016151  78.2400 282.0623 14.81639932428679
DELTA 2 R/B             
1 25876U 99041E   26013.64661306  .00002428  00000+0  42810-3 0  9998
2 25876  51.7607 161.0666 0503676 185.8227 173.6704 14.11544647355257
HELIOS 1B               
1 25977U 99064A   26013.22059810  .00001613  00000+0  18465-3 0  9994
2 25977  98.1747 273.8216 0000485 130.7584 229.3674 14.87433965677016
TERRA                   
1 25994U 99068A   26013.66051102  .00000326  00000+0  75580-4 0  9993
2 25994  97.9703  69.1663 0002455  27.3147  84.5785 14.60943215387041
SL-16 R/B               
1 26070U 00006B   26013.55092472 -.00000256  00000+0 -10556-3 0  9991
2 26070  71.0004 213.7719 0018984 266.0583  93.8370 14.15814319340755
TITAN 4B R/B            
1 26474U 00047B   26013.56067666  .00002635  00000+0  17196-3 0  9990
2 26474  67.9874 195.4687 0037066 105.0598 255.4658 15.09042894384592
ENVISAT                 
1 27386U 02009A   26013.63409710  .00000082  00000+0  40547-4 0  9992
2 27386  98.3642 328.5736 0001148  91.4004  82.0121 14.39012887251258
