CCSDS_OMM_VERS = 2.0
CREATION_DATE  = 
ORIGINATOR     = 

OBJECT_NAME    = SL-16 R/B
OBJECT_ID      = 1998-043G
CENTER_NAME    = EARTH
REF_FRAME      = TEME
TIME_SYSTEM    = UTC
MEAN_ELEMENT_THEORY = SGP/SGP4

EPOCH          = 2026-01-13T13:59:20.647968
MEAN_MOTION    = 14.26034308
ECCENTRICITY   = .00099586
INCLINATION    = 98.8166
RA_OF_ASC_NODE = 326.5864
ARG_OF_PERICENTER = 168.2774
MEAN_ANOMALY   = 191.8639

EPHEMERIS_TYPE = 0
CLASSIFICATION_TYPE = U
NORAD_CAT_ID   = 25400
ELEMENT_SET_NO = 999
REV_AT_EPOCH   = 43113
BSTAR          = .36323263E-4
MEAN_MOTION_DOT = .42E-6
MEAN_MOTION_DDOT = 0

CCSDS_OMM_VERS = 2.0
CREATION_DATE  = 
ORIGINATOR     = 

OBJECT_NAME    = SL-16 R/B
OBJECT_ID      = 1998-045B
CENTER_NAME    = EARTH
REF_FRAME      = TEME
TIME_SYSTEM    = UTC
MEAN_ELEMENT_THEORY = SGP/SGP4

EPOCH          = 2026-01-13T11:30:06.755040
MEAN_MOTION    = 14.16180051
ECCENTRICITY   = .00053294
INCLINATION    = 71.0120
RA_OF_ASC_NODE = 297.6797
ARG_OF_PERICENTER = 118.8295
MEAN_ANOMALY   = 241.3364

EPHEMERIS_TYPE = 0
CLASSIFICATION_TYPE = U
NORAD_CAT_ID   = 25407
ELEMENT_SET_NO = 999
REV_AT_EPOCH   = 41928
BSTAR          = .23197557E-4
MEAN_MOTION_DOT = -.2E-7
MEAN_MOTION_DDOT = 0

CCSDS_OMM_VERS = 2.0
CREATION_DATE  = 
ORIGINATOR     = 

OBJECT_NAME    = ISS (ZARYA)
OBJECT_ID      = 1998-067A
CENTER_NAME    = EARTH
REF_FRAME      = TEME
TIME_SYSTEM    = UTC
MEAN_ELEMENT_THEORY = SGP/SGP4

EPOCH          = 2026-01-13T09:39:35.169696
MEAN_MOTION    = 15.49273572
ECCENTRICITY   = .0007762
INCLINATION    = 51.6332
RA_OF_ASC_NODE = 345.7221
ARG_OF_PERICENTER = 13.3130
MEAN_ANOMALY   = 346.8062

EPHEMERIS_TYPE = 0
CLASSIFICATION_TYPE = U
NORAD_CAT_ID   = 25544
ELEMENT_SET_NO = 999
REV_AT_EPOCH   = 54776
BSTAR          = .17283E-3
MEAN_MOTION_DOT = .9179E-4
MEAN_MOTION_DDOT = 0

CCSDS_OMM_VERS = 2.0
CREATION_DATE  = 
ORIGINATOR     = 

OBJECT_NAME    = CZ-4B R/B
OBJECT_ID      = 1999-025C
CENTER_NAME    = EARTH
REF_FRAME      = TEME
TIME_SYSTEM    = UTC
MEAN_ELEMENT_THEORY = SGP/SGP4

EPOCH          = 2026-01-13T13:53:08.118816
MEAN_MOTION    = 14.18252037
ECCENTRICITY   = .00378107
INCLINATION    = 98.6727
RA_OF_ASC_NODE = 59.1396
ARG_OF_PERICENTER = 142.2693
MEAN_ANOMALY   = 338.3632

EPHEMERIS_TYPE = 0
CLASSIFICATION_TYPE = U
NORAD_CAT_ID   = 25732
ELEMENT_SET_NO = 999
REV_AT_EPOCH   = 38035
BSTAR          = .30746905E-4
MEAN_MOTION_DOT = .21E-6
MEAN_MOTION_DDOT = 0

CCSDS_OMM_VERS = 2.0
CREATION_DATE  = 
ORIGINATOR     = 

OBJECT_NAME    = OKEAN-O
OBJECT_ID      = 1999-039A
CENTER_NAME    = EARTH
REF_FRAME      = TEME
TIME_SYSTEM    = UTC
MEAN_ELEMENT_THEORY = SGP/SGP4

EPOCH          = 2026-01-13T10:13:53.900256
MEAN_MOTION    = 14.80225560
ECCENTRICITY   = .000166
INCLINATION    = 97.9557
RA_OF_ASC_NODE = 73.8474
ARG_OF_PERICENTER = 108.9631
MEAN_ANOMALY   = 251.1761

EPHEMERIS_TYPE = 0
CLASSIFICATION_TYPE = U
NORAD_CAT_ID   = 25860
ELEMENT_SET_NO = 999
REV_AT_EPOCH   = 42621
BSTAR          = .93615E-4
MEAN_MOTION_DOT = .66E-5
MEAN_MOTION_DDOT = 0

CCSDS_OMM_VERS = 2.0
CREATION_DATE  = 
ORIGINATOR     = 

OBJECT_NAME    = SL-16 R/B
OBJECT_ID      = 1999-039B
CENTER_NAME    = EARTH
REF_FRAME      = TEME
TIME_SYSTEM    = UTC
MEAN_ELEMENT_THEORY = SGP/SGP4

EPOCH          = 2026-01-13T09:23:07.270368
MEAN_MOTION    = 14.81639932
ECCENTRICITY   = .0016151
INCLINATION    = 98.0080
RA_OF_ASC_NODE = 72.5375
ARG_OF_PERICENTER = 78.2400
MEAN_ANOMALY   = 282.0623

EPHEMERIS_TYPE = 0
CLASSIFICATION_TYPE = U
NORAD_CAT_ID   = 25861
ELEMENT_SET_NO = 999
REV_AT_EPOCH   = 42867
BSTAR          = .69692E-4
MEAN_MOTION_DOT = .495E-5
MEAN_MOTION_DDOT = 0

CCSDS_OMM_VERS = 2.0
CREATION_DATE  = 
ORIGINATOR     = 

OBJECT_NAME    = DELTA 2 R/B
OBJECT_ID      = 1999-041E
CENTER_NAME    = EARTH
REF_FRAME      = TEME
TIME_SYSTEM    = UTC
MEAN_ELEMENT_THEORY = SGP/SGP4

EPOCH          = 2026-01-13T15:31:07.368384
MEAN_MOTION    = 14.11544647
ECCENTRICITY   = .05036769
INCLINATION    = 51.7607
RA_OF_ASC_NODE = 161.0666
ARG_OF_PERICENTER = 185.8227
MEAN_ANOMALY   = 173.6704

EPHEMERIS_TYPE = 0
CLASSIFICATION_TYPE = U
NORAD_CAT_ID   = 25876
ELEMENT_SET_NO = 999
REV_AT_EPOCH   = 35525
BSTAR          = .42810327E-3
MEAN_MOTION_DOT = .2428E-4
MEAN_MOTION_DDOT = 0

CCSDS_OMM_VERS = 2.0
CREATION_DATE  = 
ORIGINATOR     = 

OBJECT_NAME    = HELIOS 1B
OBJECT_ID      = 1999-064A
CENTER_NAME    = EARTH
REF_FRAME      = TEME
TIME_SYSTEM    = UTC
MEAN_ELEMENT_THEORY = SGP/SGP4

EPOCH          = 2026-01-13T05:17:39.675840
MEAN_MOTION    = 14.87433965
ECCENTRICITY   = .0000485
INCLINATION    = 98.1747
RA_OF_ASC_NODE = 273.8216
ARG_OF_PERICENTER = 130.7584
MEAN_ANOMALY   = 229.3674

EPHEMERIS_TYPE = 0
CLASSIFICATION_TYPE = U
NORAD_CAT_ID   = 25977
ELEMENT_SET_NO = 999
REV_AT_EPOCH   = 67701
BSTAR          = .18465E-3
MEAN_MOTION_DOT = .1613E-4
MEAN_MOTION_DDOT = 0

CCSDS_OMM_VERS = 2.0
CREATION_DATE  = 
ORIGINATOR     = 

OBJECT_NAME    = TERRA
OBJECT_ID      = 1999-068A
CENTER_NAME    = EARTH
REF_FRAME      = TEME
TIME_SYSTEM    = UTC
MEAN_ELEMENT_THEORY = SGP/SGP4

EPOCH          = 2026-01-13T15:51:08.152128
MEAN_MOTION    = 14.60943215
ECCENTRICITY   = .00024555
INCLINATION    = 97.9703
RA_OF_ASC_NODE = 69.1663
ARG_OF_PERICENTER = 27.3147
MEAN_ANOMALY   = 84.5785

EPHEMERIS_TYPE = 0
CLASSIFICATION_TYPE = U
NORAD_CAT_ID   = 25994
ELEMENT_SET_NO = 999
REV_AT_EPOCH   = 38704
BSTAR          = .75580378E-4
MEAN_MOTION_DOT = .326E-5
MEAN_MOTION_DDOT = 0

CCSDS_OMM_VERS = 2.0
CREATION_DATE  = 
ORIGINATOR     = 

OBJECT_NAME    = SL-16 R/B
OBJECT_ID      = 2000-006B
CENTER_NAME    = EARTH
REF_FRAME      = TEME
TIME_SYSTEM    = UTC
MEAN_ELEMENT_THEORY = SGP/SGP4

EPOCH          = 2026-01-13T13:13:19.895808
MEAN_MOTION    = 14.15814319
ECCENTRICITY   = .00189848
INCLINATION    = 71.0004
RA_OF_ASC_NODE = 213.7719
ARG_OF_PERICENTER = 266.0583
MEAN_ANOMALY   = 93.8370

EPHEMERIS_TYPE = 0
CLASSIFICATION_TYPE = U
NORAD_CAT_ID   = 26070
ELEMENT_SET_NO = 999
REV_AT_EPOCH   = 34075
BSTAR          = -.10556159E-3
MEAN_MOTION_DOT = -.256E-5
MEAN_MOTION_DDOT = 0

CCSDS_OMM_VERS = 2.0
CREATION_DATE  = 
ORIGINATOR     = 

OBJECT_NAME    = TITAN 4B R/B
OBJECT_ID      = 2000-047B
CENTER_NAME    = EARTH
REF_FRAME      = TEME
TIME_SYSTEM    = UTC
MEAN_ELEMENT_THEORY = SGP/SGP4

EPOCH          = 2026-01-13T13:27:22.463424
MEAN_MOTION    = 15.09042894
ECCENTRICITY   = .00370661
INCLINATION    = 67.9874
RA_OF_ASC_NODE = 195.4687
ARG_OF_PERICENTER = 105.0598
MEAN_ANOMALY   = 255.4658

EPHEMERIS_TYPE = 0
CLASSIFICATION_TYPE = U
NORAD_CAT_ID   = 26474
ELEMENT_SET_NO = 999
REV_AT_EPOCH   = 38459
BSTAR          = .17196459E-3
MEAN_MOTION_DOT = .2635E-4
MEAN_MOTION_DDOT = 0

CCSDS_OMM_VERS = 2.0
CREATION_DATE  = 
ORIGINATOR     = 

OBJECT_NAME    = ENVISAT
OBJECT_ID      = 2002-009A
CENTER_NAME    = EARTH
REF_FRAME      = TEME
TIME_SYSTEM    = UTC
MEAN_ELEMENT_THEORY = SGP/SGP4

EPOCH          = 2026-01-13T15:13:05.989440
MEAN_MOTION    = 14.39012887
ECCENTRICITY   = .00011482
INCLINATION    = 98.3642
RA_OF_ASC_NODE = 328.5736
ARG_OF_PERICENTER = 91.4004
MEAN_ANOMALY   = 82.0121

EPHEMERIS_TYPE = 0
CLASSIFICATION_TYPE = U
NORAD_CAT_ID   = 27386
ELEMENT_SET_NO = 999
REV_AT_EPOCH   = 25125
BSTAR          = .40547474E-4
MEAN_MOTION_DOT = .82E-6
MEAN_MOTION_DDOT = 0

